H1 CPF 01  gfz 2022 11 21 01  8251 tandemx   
H2 1003001  6202 36605    2022 11 21 00 59 42 2022 11 26 00 00 42   120 1 1  0 0 0
H9
10 0 59905  33102.000000  0   -4656239.138   5077901.811    -47342.528
10 0 59905  33222.000000  0   -4486959.763   5156184.759    855684.636
10 0 59905  33342.000000  0   -4238693.270   5140676.077   1743644.518
10 0 59905  33462.000000  0   -3917414.821   5030297.387   2600896.770
10 0 59905  33582.000000  0   -3530394.114   4825761.017   3412344.197
10 0 59905  33702.000000  0   -3086032.144   4529576.000   4163704.569
10 0 59905  33822.000000  0   -2593678.341   4146018.338   4841766.001
10 0 59905  33942.000000  0   -2063431.184   3681065.412   5434620.820
10 0 59905  34062.000000  0   -1505928.021   3142296.456   5931873.038
10 0 59905  34182.000000  0    -932128.755   2538762.266   6324816.138
10 0 59905  34302.000000  0    -353099.114   1880827.009   6606578.417
10 0 59905  34422.000000  0     220201.983   1179987.294   6772237.243
10 0 59905  34542.000000  0     777129.731    448668.898   6818900.002
10 0 59905  34662.000000  0    1307550.101   -299993.208   6745750.766
10 0 59905  34782.000000  0    1802023.302  -1052389.968   6554064.650
10 0 59905  34902.000000  0    2251971.592  -1794685.099   6247187.052
10 0 59905  35022.000000  0    2649829.048  -2513069.164   5830480.019
10 0 59905  35142.000000  0    2989171.292  -3194017.904   5311233.883
10 0 59905  35262.000000  0    3264821.583  -3824549.488   4698545.368
10 0 59905  35382.000000  0    3472932.599  -4392476.275   4003164.012
10 0 59905  35502.000000  0    3611042.048  -4886646.782   3237306.874
10 0 59905  35622.000000  0    3678099.534  -5297170.965   2414444.743
10 0 59905  35742.000000  0    3674464.819  -5615624.521   1549063.241
10 0 59905  35862.000000  0    3601876.731  -5835226.462    656402.921
10 0 59905  35982.000000  0    3463393.430  -5950984.326   -247815.539
10 0 59905  36102.000000  0    3263307.042  -5959806.525  -1147676.174
10 0 59905  36222.000000  0    3007030.961  -5860574.861  -2027358.041
10 0 59905  36342.000000  0    2700965.790  -5654177.364  -2871420.244
10 0 59905  36462.000000  0    2352347.052  -5343500.890  -3665079.254
10 0 59905  36582.000000  0    1969077.687  -4933382.886  -4394470.666
10 0 59905  36702.000000  0    1559550.439  -4430525.050  -5046888.614
10 0 59905  36822.000000  0    1132466.740  -3843373.102  -5611000.624
10 0 59905  36942.000000  0     696654.544  -3181965.593  -6077035.670
10 0 59905  37062.000000  0     260888.474  -2457755.315  -6436942.400
10 0 59905  37182.000000  0    -166283.404  -1683407.112  -6684516.843
10 0 59905  37302.000000  0    -576702.821   -872575.839  -6815499.012
10 0 59905  37422.000000  0    -962752.193    -39667.968  -6827638.447
10 0 59905  37542.000000  0   -1317492.202    800409.155  -6720727.605
10 0 59905  37662.000000  0   -1634783.625   1632507.010  -6496604.725
10 0 59905  37782.000000  0   -1909391.029   2441502.143  -6159125.419
10 0 59905  37902.000000  0   -2137068.604   3212565.291  -5714104.982
10 0 59905  38022.000000  0   -2314626.151   3931430.939  -5169228.241
10 0 59905  38142.000000  0   -2439974.292   4584662.043  -4533928.816
10 0 59905  38262.000000  0   -2512148.143   5159905.949  -3819236.144
10 0 59905  38382.000000  0   -2531307.562   5646134.127  -3037592.100
10 0 59905  38502.000000  0   -2498714.008   6033861.874  -2202642.074
10 0 59905  38622.000000  0   -2416684.932   6315344.731  -1329000.206
10 0 59905  38742.000000  0   -2288525.586   6484742.019   -431992.161
10 0 59905  38862.000000  0   -2118440.473   6538246.334    472615.843
10 0 59905  38982.000000  0   -1911425.749   6474176.378   1368902.649
10 0 59905  39102.000000  0   -1673143.159   6293022.429   2241084.244
10 0 59905  39222.000000  0   -1409780.571   5997446.871   3073800.302
10 0 59905  39342.000000  0   -1127903.723   5592242.162   3852391.019
10 0 59905  39462.000000  0    -834303.068   5084247.782   4563160.157
10 0 59905  39582.000000  0    -535837.626   4482225.650   5193620.147
10 0 59905  39702.000000  0    -239279.439   3796697.881   5732708.949
10 0 59905  39822.000000  0      48834.402   3039755.394   6170980.846
10 0 59905  39942.000000  0     322341.357   2224836.153   6500766.977
10 0 59905  40062.000000  0     575581.707   1366481.747   6716303.302
10 0 59905  40182.000000  0     803513.093    480074.322   6813825.647
10 0 59905  40302.000000  0    1001809.028   -418439.188   6791630.429
10 0 59905  40422.000000  0    1166940.170  -1312832.937   6650103.759
10 0 59905  40542.000000  0    1296237.164  -2186894.956   6391715.501
10 0 59905  40662.000000  0    1387933.975  -3024721.156   6020979.467
10 0 59905  40782.000000  0    1441190.755  -3811006.991   5544378.915
10 0 59905  40902.000000  0    1456095.959  -4531329.635   4970257.510
10 0 59905  41022.000000  0    1433648.988  -5172416.464   4308679.642
10 0 59905  41142.000000  0    1375722.666  -5722398.320   3571260.164
10 0 59905  41262.000000  0    1285006.065  -6171039.431   2770961.750
10 0 59905  41382.000000  0    1164928.480  -6509936.316   1921866.280
10 0 59905  41502.000000  0    1019566.244  -6732684.451   1038924.967
10 0 59905  41622.000000  0     853535.185  -6835007.156    137689.596
10 0 59905  41742.000000  0     671870.247  -6814843.208   -765970.509
10 0 59905  41862.000000  0     479895.036  -6672386.764  -1656158.930
10 0 59905  41982.000000  0     283087.323  -6410080.658  -2517239.822
10 0 59905  42102.000000  0      86942.848  -6032566.369  -3334118.024
10 0 59905  42222.000000  0    -103159.655  -5546591.517  -4092507.293
10 0 59905  42342.000000  0    -282088.862  -4960876.029  -4779180.346
10 0 59905  42462.000000  0    -445083.176  -4285942.662  -5382194.645
10 0 59905  42582.000000  0    -587862.372  -3533917.094  -5891092.492
10 0 59905  42702.000000  0    -706725.950  -2718301.517  -6297072.342
10 0 59905  42822.000000  0    -798636.766  -1853727.108  -6593129.730
10 0 59905  42942.000000  0    -861288.602   -955690.604  -6774166.631
10 0 59905  43062.000000  0    -893156.856    -40279.408  -6837070.432
10 0 59905  43182.000000  0    -893530.985    876111.548  -6780760.739
10 0 59905  43302.000000  0    -862528.895   1777065.575  -6606205.376
10 0 59905  43422.000000  0    -801093.310   2646430.699  -6316405.499
10 0 59905  43542.000000  0    -710969.592   3468603.069  -5916350.905
10 0 59905  43662.000000  0    -594665.489   4228804.939  -5412943.557
10 0 59905  43782.000000  0    -455393.003   4913350.584  -4814889.381
10 0 59905  43902.000000  0    -296994.041   5509897.761  -4132559.396
10 0 59905  44022.000000  0    -123850.502   6007678.790  -3377819.494
10 0 59905  44142.000000  0      59219.798   6397705.443  -2563831.629
10 0 59905  44262.000000  0     247079.101   6672943.815  -1704828.984
10 0 59905  44382.000000  0     434395.048   6828454.175   -815867.710
10 0 59905  44502.000000  0     615772.761   6861490.944     87440.223
10 0 59905  44622.000000  0     785890.381   6771559.651    989207.642
10 0 59905  44742.000000  0     939634.147   6560428.031   1873560.057
10 0 59905  44862.000000  0    1072228.175   6232091.464   2724923.554
10 0 59905  44982.000000  0    1179356.991   5792695.192   3528306.400
10 0 59905  45102.000000  0    1257278.223   5250413.163   4269569.946
10 0 59905  45222.000000  0    1302923.758   4615288.528   4935682.304
10 0 59905  45342.000000  0    1313981.826   3899034.605   5514950.359
10 0 59905  45462.000000  0    1288963.458   3114808.570   5997219.152
10 0 59905  45582.000000  0    1227250.199   2276963.164   6374045.633
10 0 59905  45702.000000  0    1129121.713   1400778.062   6638841.211
10 0 59905  45822.000000  0     995763.683    502177.019   6786980.795
10 0 59905  45942.000000  0     829255.606   -402561.862   6815877.461
10 0 59905  46062.000000  0     632538.541  -1297099.836   6725026.265
10 0 59905  46182.000000  0     409363.018  -2165332.807   6516013.014
10 0 59905  46302.000000  0     164217.757  -2991681.434   6192488.719
10 0 59905  46422.000000  0     -97759.102  -3761372.686   5760108.010
10 0 59905  46542.000000  0    -370884.057  -4460704.509   5226434.027
10 0 59905  46662.000000  0    -649046.403  -5077293.186   4600814.152
10 0 59905  46782.000000  0    -925839.927  -5600302.098   3894224.026
10 0 59905  46902.000000  0   -1194705.056  -6020642.671   3119077.299
10 0 59905  47022.000000  0   -1449077.428  -6331141.316   2289007.831
10 0 59905  47142.000000  0   -1682539.720  -6526671.391   1418628.731
10 0 59905  47262.000000  0   -1888974.550  -6604245.444    523269.479
10 0 59905  47382.000000  0   -2062711.457  -6563063.331   -381302.364
10 0 59905  47502.000000  0   -2198665.479  -6404516.483  -1279167.637
10 0 59905  47622.000000  0   -2292464.235  -6132148.160  -2154544.166
10 0 59905  47742.000000  0   -2340560.486  -5751571.013  -2992071.633
10 0 59905  47862.000000  0   -2340326.948  -5270343.457  -3777086.678
10 0 59905  47982.000000  0   -2290130.832  -4697808.507  -4495881.115
10 0 59905  48102.000000  0   -2189386.905  -4044901.277  -5135938.012
10 0 59905  48222.000000  0   -2038588.691  -3323930.849  -5686142.897
10 0 59905  48342.000000  0   -1839317.499  -2548341.324  -6136968.080
10 0 59905  48462.000000  0   -1594228.655  -1732456.225  -6480627.398
10 0 59905  48582.000000  0   -1307015.867   -891212.440  -6711198.718
10 0 59905  48702.000000  0    -982355.731    -39889.102  -6824715.088
10 0 59905  48822.000000  0    -625832.317    806164.502  -6819224.944
10 0 59905  48942.000000  0    -243842.428   1631798.433  -6694821.780
10 0 59905  49062.000000  0     156515.427   2422326.038  -6453642.631
10 0 59905  49182.000000  0     567568.732   3163779.859  -6099837.452
10 0 59905  49302.000000  0     981214.726   3843156.452  -5639505.472
10 0 59905  49422.000000  0    1389075.503   4448643.939  -5080599.518
10 0 59905  49542.000000  0    1782663.606   4969831.253  -4432800.940
99
